SKYSAT-C4               
1 41771U 16058B   26197.01406851  .00010111  00000+0  18545-3 0  9999
2 41771  96.9159 217.5942 0003473 115.8842 244.2768 15.49453903549933
SKYSAT-C5               
1 41772U 16058C   26197.05944818  .00003999  00000+0  12489-3 0  9991
2 41772  97.0452 236.4040 0002639 158.1857 201.9499 15.33726185548174
SKYSAT-C2               
1 41773U 16058D   26196.99980291  .00006943  00000+0  16106-3 0  9991
2 41773  97.0155 218.0208 0001392 350.0637  10.0584 15.42691285549493
SKYSAT-C3               
1 41774U 16058E   26197.07149359  .00014988  00000+0  23540-3 0  9992
2 41774  96.8989 226.8279 0002559 131.8662 228.2811 15.53733168550598
ALSAT-1B                
1 41785U 16059C   26197.19237749  .00000372  00000+0  66228-4 0  9992
2 41785  97.7748 204.7045 0010343 126.9014 233.3143 14.72295535524840
PATHFINDER 1            
1 41787U 16059E   26196.97503172  .00000265  00000+0  54441-4 0  9990
2 41787  97.8177 194.9535 0029838 113.3409 247.0941 14.67693642523932
SCATSAT 1               
1 41790U 16059H   26197.15849850  .00000625  00000+0  88808-4 0  9995
2 41790  98.1178 261.2218 0055279 153.4933 206.9124 14.79588524105873
GOKTURK 1A              
1 41875U 16073A   26197.18042771  .00000392  00000+0  85893-4 0  9997
2 41875  98.1218  91.3961 0001408  80.2760 279.8601 14.62794405513061
RESOURCESAT-2A          
1 41877U 16074A   26197.20911698 -.00000250  00000+0 -93907-4 0  9996
2 41877  98.7525 270.4747 0002354  26.2058 333.9238 14.21607703498422
CARTOSAT-2D             
1 41948U 17008A   26197.20433403  .00001994  00000+0  97685-4 0  9997
2 41948  97.4094 255.9656 0006151 135.4499 224.7231 15.19289203521983
SENTINEL-2B             
1 42063U 17013A   26197.15855853 -.00000029  00000+0  57279-5 0  9998
2 42063  98.5690 271.5227 0001197  90.2870 269.8450 14.30815222488781
CARTOSAT-2E             
1 42767U 17036C   26197.15625759  .00002239  00000+0  10942-3 0  9992
2 42767  97.4263 256.4786 0003360 185.2051 174.9150 15.19259690502541
FORMOSAT-5              
1 42920U 17049A   26197.15530375  .00000042  00000+0  21820-4 0  9994
2 42920  98.2246 271.8203 0011272   0.8831 359.2382 14.50907982470879
SENTINEL-5P             
1 42969U 17064A   26196.81915036  .00000006  00000+0  24074-4 0  9991
2 42969  98.7929 138.7478 0001136  93.1650 266.9656 14.19523350453622
SKYSAT-C11              
1 42987U 17068A   26196.94765456  .00018575  00000+0  23691-3 0  9991
2 42987  97.4381 347.0668 0001161 158.9178 201.2126 15.59351130487721
SKYSAT-C10              
1 42988U 17068B   26196.91234369  .00006009  00000+0  17869-3 0  9992
2 42988  97.4542 334.0538 0001465 110.9376 249.2024 15.35125075486761
SKYSAT-C9               
1 42989U 17068C   26196.92334097  .00007471  00000+0  17585-3 0  9992
2 42989  97.4461 335.2786 0008579  42.5748 317.6163 15.42224961487189
SKYSAT-C8               
1 42990U 17068D   26196.90461323  .00005815  00000+0  16040-3 0  9990
2 42990  97.4558 333.9566 0001213 103.3850 256.7530 15.37499510486725
SKYSAT-C7               
1 42991U 17068E   26196.89911914  .00005755  00000+0  15897-3 0  9997
2 42991  97.4569 334.9426 0005668  18.9667 341.1787 15.37449994486789
SKYSAT-C6               
1 42992U 17068F   26196.91048353  .00005061  00000+0  15543-3 0  9997
2 42992  97.4607 334.8045 0005082  87.6386 272.5438 15.34176907486722
CARTOSAT-2F             
1 43111U 18004A   26197.18884668  .00001529  00000+0  75947-4 0  9999
2 43111  97.4772 256.5380 0002383 130.3920 229.7522 15.19175976471733
GAOFEN-1 02             
1 43259U 18031A   26197.16889486  .00000056  00000+0  15483-4 0  9996
2 43259  98.0516 259.6127 0001493 280.3693  79.7348 14.76472184446976
GAOFEN-1 03             
1 43260U 18031B   26196.94368838  .00000310  00000+0  51912-4 0  9996
2 43260  98.0503 259.2433 0002354  13.6481 346.4792 14.76463003446932
GAOFEN-1 04             
1 43262U 18031D   26196.91938795 -.00000193  00000+0 -20300-4 0  9998
2 43262  98.0519 259.4134 0001265  55.1743 304.9586 14.76469548446922
SENTINEL-3B             
1 43437U 18039A   26197.15333610  .00000048  00000+0  38025-4 0  9992
2 43437  98.6236 264.2680 0001163 119.6874 240.4422 14.26736520428257
GAOFEN-5 01             
1 43461U 18043A   26197.17621019  .00000122  00000+0  35135-4 0  9991
2 43461  98.4591 169.3747 0002043  29.9986 330.1330 14.60623635435927
GAOFEN-6                
1 43484U 18048A   26197.21307742  .00000487  00000+0  77535-4 0  9994
2 43484  98.0960 259.9172 0012098  78.7126 281.5442 14.76384997437674
GAOFEN-11 01            
1 43585U 18063A   26197.18268642  .00008974  00000+0  13005-3 0  9994
2 43585  97.1274 263.9932 0003265 195.7643 164.3511 15.56086871444855
ICESAT-2                
1 43613U 18070A   26197.22793466  .00005087  00000+0  18515-3 0  9999
2 43613  92.0096 298.8269 0005575  56.6919 303.4863 15.28187569436896
HYSIS                   
1 43719U 18096A   26197.17442133  .00000396  00000+0  61039-4 0  9998
2 43719  97.9832 263.6931 0001823  83.7727 276.3691 14.78671513411702
KAZSTSAT                
1 43783U 18099AB  26197.05059223  .00000361  00000+0  33574-4 0  9998
2 43783  97.4317 227.6783 0007322 337.5710  22.5193 14.99956264415639
