OBJECT_NAME,OBJECT_ID,EPOCH,MEAN_MOTION,ECCENTRICITY,INCLINATION,RA_OF_ASC_NODE,ARG_OF_PERICENTER,MEAN_ANOMALY,EPHEMERIS_TYPE,CLASSIFICATION_TYPE,NORAD_CAT_ID,ELEMENT_SET_NO,REV_AT_EPOCH,BSTAR,MEAN_MOTION_DOT,MEAN_MOTION_DDOT
SKYSAT-C4,2016-058B,2026-07-16T00:20:15.519264,15.49453903,.0003473,96.9159,217.5942,115.8842,244.2768,0,U,41771,999,54993,.18545E-3,.10111E-3,0
SKYSAT-C5,2016-058C,2026-07-16T01:25:36.322752,15.33726185,.0002639,97.0452,236.4040,158.1857,201.9499,0,U,41772,999,54817,.12489E-3,.3999E-4,0
SKYSAT-C2,2016-058D,2026-07-15T23:59:42.971424,15.42691285,.0001392,97.0155,218.0208,350.0637,10.0584,0,U,41773,999,54949,.16106E-3,.6943E-4,0
SKYSAT-C3,2016-058E,2026-07-16T01:42:57.046176,15.53733168,.0002559,96.8989,226.8279,131.8662,228.2811,0,U,41774,999,55059,.2354E-3,.14988E-3,0
ALSAT-1B,2016-059C,2026-07-16T04:37:01.415136,14.72295535,.0010343,97.7748,204.7045,126.9014,233.3143,0,U,41785,999,52484,.66228E-4,.372E-5,0
PATHFINDER 1,2016-059E,2026-07-15T23:24:02.740608,14.67693642,.0029838,97.8177,194.9535,113.3409,247.0941,0,U,41787,999,52393,.54441E-4,.265E-5,0
SCATSAT 1,2016-059H,2026-07-16T03:48:14.270400,14.79588524,.0055279,98.1178,261.2218,153.4933,206.9124,0,U,41790,999,10587,.88808E-4,.625E-5,0
GOKTURK 1A,2016-073A,2026-07-16T04:19:48.954144,14.62794405,.0001408,98.1218,91.3961,80.2760,279.8601,0,U,41875,999,51306,.85893E-4,.392E-5,0
RESOURCESAT-2A,2016-074A,2026-07-16T05:01:07.707072,14.21607703,.0002354,98.7525,270.4747,26.2058,333.9238,0,U,41877,999,49842,-.93907E-4,-.25E-5,0
CARTOSAT-2D,2017-008A,2026-07-16T04:54:14.460192,15.19289203,.0006151,97.4094,255.9656,135.4499,224.7231,0,U,41948,999,52198,.97685E-4,.1994E-4,0
SENTINEL-2B,2017-013A,2026-07-16T03:48:19.456992,14.30815222,.0001197,98.5690,271.5227,90.2870,269.8450,0,U,42063,999,48878,.57279E-5,-.29E-6,0
CARTOSAT-2E,2017-036C,2026-07-16T03:45:00.655776,15.19259690,.000336,97.4263,256.4786,185.2051,174.9150,0,U,42767,999,50254,.10942E-3,.2239E-4,0
FORMOSAT-5,2017-049A,2026-07-16T03:43:38.244000,14.50907982,.0011272,98.2246,271.8203,0.8831,359.2382,0,U,42920,999,47087,.2182E-4,.42E-6,0
SENTINEL-5P,2017-064A,2026-07-15T19:39:34.591104,14.19523350,.00011361,98.7929,138.7478,93.1650,266.9656,0,U,42969,999,45362,.24073677E-4,.6E-7,0
SKYSAT-C11,2017-068A,2026-07-15T22:44:37.353984,15.59351130,.0001161,97.4381,347.0668,158.9178,201.2126,0,U,42987,999,48772,.23691E-3,.18575E-3,0
SKYSAT-C10,2017-068B,2026-07-15T21:53:46.494816,15.35125075,.0001465,97.4542,334.0538,110.9376,249.2024,0,U,42988,999,48676,.17869E-3,.6009E-4,0
SKYSAT-C9,2017-068C,2026-07-15T22:09:36.659808,15.42224961,.0008579,97.4461,335.2786,42.5748,317.6163,0,U,42989,999,48718,.17585E-3,.7471E-4,0
SKYSAT-C8,2017-068D,2026-07-15T21:42:38.583072,15.37499510,.0001213,97.4558,333.9566,103.3850,256.7530,0,U,42990,999,48672,.1604E-3,.5815E-4,0
SKYSAT-C7,2017-068E,2026-07-15T21:34:43.893696,15.37449994,.0005668,97.4569,334.9426,18.9667,341.1787,0,U,42991,999,48678,.15897E-3,.5755E-4,0
SKYSAT-C6,2017-068F,2026-07-15T21:51:05.776992,15.34176907,.0005082,97.4607,334.8045,87.6386,272.5438,0,U,42992,999,48672,.15543E-3,.5061E-4,0
CARTOSAT-2F,2018-004A,2026-07-16T04:31:56.353152,15.19175976,.0002383,97.4772,256.5380,130.3920,229.7522,0,U,43111,999,47173,.75947E-4,.1529E-4,0
GAOFEN-1 02,2018-031A,2026-07-16T04:03:12.515904,14.76472184,.0001493,98.0516,259.6127,280.3693,79.7348,0,U,43259,999,44697,.15483E-4,.56E-6,0
GAOFEN-1 03,2018-031B,2026-07-15T22:38:54.676032,14.76463003,.00023546,98.0503,259.2433,13.6481,346.4792,0,U,43260,999,44693,.51912286E-4,.31E-5,0
GAOFEN-1 04,2018-031D,2026-07-15T22:03:55.118880,14.76469548,.00012659,98.0519,259.4134,55.1743,304.9586,0,U,43262,999,44692,-.20299748E-4,-.193E-5,0
SENTINEL-3B,2018-039A,2026-07-16T03:40:48.239040,14.26736520,.0001163,98.6236,264.2680,119.6874,240.4422,0,U,43437,999,42825,.38025E-4,.48E-6,0
GAOFEN-5 01,2018-043A,2026-07-16T04:13:44.560416,14.60623635,.0002043,98.4591,169.3747,29.9986,330.1330,0,U,43461,999,43592,.35135E-4,.122E-5,0
GAOFEN-6,2018-048A,2026-07-16T05:06:49.889088,14.76384997,.0012098,98.0960,259.9172,78.7126,281.5442,0,U,43484,999,43767,.77535E-4,.487E-5,0
GAOFEN-11 01,2018-063A,2026-07-16T04:23:04.106688,15.56086871,.0003265,97.1274,263.9932,195.7643,164.3511,0,U,43585,999,44485,.13005E-3,.8974E-4,0
ICESAT-2,2018-070A,2026-07-16T05:28:13.554624,15.28187569,.0005575,92.0096,298.8269,56.6919,303.4863,0,U,43613,999,43689,.18515E-3,.5087E-4,0
HYSIS,2018-096A,2026-07-16T04:11:10.002912,14.78671513,.0001823,97.9832,263.6931,83.7727,276.3691,0,U,43719,999,41170,.61039E-4,.396E-5,0
KAZSTSAT,2018-099AB,2026-07-16T01:12:51.168672,14.99956264,.0007322,97.4317,227.6783,337.5710,22.5193,0,U,43783,999,41563,.33574E-4,.361E-5,0
